IRIDIUM 158             
1 43571U 18061C   24318.51016323  .00000438  00000+0  14943-3 0  9993
2 43571  86.3923 299.4055 0002412  85.4525 274.6946 14.34220620330137
IRIDIUM 165             
1 43572U 18061D   24318.46576528  .00000480  00000+0  16442-3 0  9999
2 43572  86.3927 299.4594 0002163  86.6871 273.4572 14.34220788330159
IRIDIUM 155             
1 43573U 18061E   24318.49748042  .00000274  00000+0  90937-4 0  9998
2 43573  86.3919 299.3439 0002425  82.4630 277.6841 14.34214618330123
IRIDIUM 154             
1 43574U 18061F   24318.47845108  .00000799  00000+0  27813-3 0  9992
2 43574  86.3926 299.4568 0002229  91.1178 269.0273 14.34219504330170
IRIDIUM 163             
1 43575U 18061G   24318.45942616  .00000817  00000+0  28452-3 0  9994
2 43575  86.3924 299.3986 0002345  89.4118 270.7347 14.34218272330144
IRIDIUM 156             
1 43576U 18061H   24318.50382466  .00000457  00000+0  15607-3 0  9990
2 43576  86.3922 299.3864 0002481  80.4967 279.6509 14.34216162330146
IRIDIUM 164             
1 43577U 18061J   24318.48479130  .00000557  00000+0  19180-3 0  9994
2 43577  86.3925 299.4255 0002083  85.5394 274.6040 14.34221965330189
